NORAD_CAT_ID,OBJECT_NAME,OBJECT_TYPE,EPOCH,MEAN_MOTION,ECCENTRICITY,INCLINATION,RA_OF_ASC_NODE,ARG_OF_PERICENTER,MEAN_ANOMALY,BSTAR,MEAN_MOTION_DOT,MEAN_MOTION_DDOT,TLE_LINE0,TLE_LINE1,TLE_LINE2,SEMIMAJOR_AXIS,PERIOD,APOGEE,PERIGEE,DECAYED
52305.0,STARLINK-3724,PAYLOAD,2022-11-16 04:15:32,15.0883253,0.0001948,53.2181,128.8413,55.8666,304.2511,0.00014782,2.065e-05,0.0,0 STARLINK-3724,1 52305U 22041AW  22320.17745607  .00002065  00000-0  14782-3 0  9998,2 52305  53.2181 128.8413 0001948  55.8666 304.2511 15.08832530 31917,6917.903,95.438,541.116,538.4209999999998,0.0
52305.0,STARLINK-3724,PAYLOAD,2022-11-16 16:58:37,15.08839255,0.0001949,53.2182,126.4623,56.1963,303.9214,0.00015456,2.172e-05,0.0,0 STARLINK-3724,1 52305U 22041AW  22320.70737421  .00002172  00000-0  15456-3 0  9990,2 52305  53.2182 126.4623 0001949  56.1963 303.9214 15.08839255 33212,6917.8830000000025,95.438,541.096,538.399,0.0
52305.0,STARLINK-3724,PAYLOAD,2022-11-17 04:06:18,15.08844066,0.0001996,53.2185,124.3808,56.7421,303.3762,0.00017405,2.483e-05,0.0,0 STARLINK-3724,1 52305U 22041AW  22321.17105153  .00002483  00000-0  17405-3 0  9994,2 52305  53.2185 124.3808 0001996  56.7421 303.3762 15.08844066 32064,6917.868,95.437,541.114,538.352,0.0
52305.0,STARLINK-3724,PAYLOAD,2022-11-17 15:14:00,15.08849235,0.0001975,53.2184,122.2985,57.0681,303.0501,0.00014612,2.039e-05,0.0,0 STARLINK-3724,1 52305U 22041AW  22321.63472675  .00002039  00000-0  14612-3 0  9995,2 52305  53.2184 122.2985 0001975  57.0681 303.0501 15.08849235 32134,6917.852,95.437,541.0830000000002,538.351,0.0
52305.0,STARLINK-3724,PAYLOAD,2022-11-17 23:10:56,15.08840429,0.0001709,53.2184,120.8124,54.523,305.5921,5.2653e-05,5.5e-06,0.0,0 STARLINK-3724,1 52305U 22041AW  22321.96593314  .00000550  00000-0  52653-4 0  9999,2 52305  53.2184 120.8124 0001709  54.5230 305.5921 15.08840429 33400,6917.879,95.438,540.9259999999998,538.562,0.0
52305.0,STARLINK-3724,PAYLOAD,2022-11-18 10:18:38,15.08840054,0.0001718,53.2187,118.7308,54.8233,305.2920000000001,2.7921e-05,1.56e-06,0.0,0 STARLINK-3724,1 52305U 22041AW  22322.42961318  .00000156  00000-0  27921-4 0  9996,2 52305  53.2187 118.7308 0001718  54.8233 305.2920 15.08840054 32251,6917.88,95.438,540.934,538.557,0.0
52305.0,STARLINK-3724,PAYLOAD,2022-11-18 23:01:42,15.08852138,0.0001448,53.2178,116.3524,71.8543,288.2607,1.5536e-06,-2.63e-06,0.0,0 STARLINK-3724,1 52305U 22041AW  22322.95952303 -.00000263  00000-0  15536-5 0  9998,2 52305  53.2178 116.3524 0001448  71.8543 288.2607 15.08852138 33550,6917.843000000003,95.437,540.71,538.707,0.0
52305.0,STARLINK-3724,PAYLOAD,2022-11-19 10:09:24,15.08853235,0.0001786999999999,53.2184,114.2703,55.07100000000001,305.045,5.6274e-05,6.08e-06,0.0,0 STARLINK-3724,1 52305U 22041AW  22323.42320005  .00000608  00000-0  56274-4 0  9994,2 52305  53.2184 114.2703 0001787  55.0710 305.0450 15.08853235 32405,6917.84,95.437,540.941,538.469,0.0
52305.0,STARLINK-3724,PAYLOAD,2022-11-19 16:30:57,15.08846917,0.0001822,53.219,113.0806,55.7567,304.3597,1.2677e-06,-2.68e-06,0.0,0 STARLINK-3724,1 52305U 22041AW  22323.68816429 -.00000268  00000-0  12677-5 0  9995,2 52305  53.2190 113.0806 0001822  55.7567 304.3597 15.08846917 33662,6917.859,95.437,540.985,538.464,0.0
52305.0,STARLINK-3724,PAYLOAD,2022-11-20 13:10:57,15.08845657,0.0001959,53.2177,109.2152,58.0817,302.0366,7.0929e-05,8.41e-06,0.0,0 STARLINK-3724,1 52305U 22041AW  22324.54928178  .00000841  00000-0  70929-4 0  9995,2 52305  53.2177 109.2152 0001959  58.0817 302.0366 15.08845657 32571,6917.863,95.437,541.0830000000002,538.373,0.0
52305.0,STARLINK-3724,PAYLOAD,2022-11-20 16:21:44,15.08849107,0.0001736,53.2196,108.6199,56.5077,303.6081,4.3518e-05,4.05e-06,0.0,0 STARLINK-3724,1 52305U 22041AW  22324.68175961  .00000405  00000-0  43518-4 0  9994,2 52305  53.2196 108.6199 0001736  56.5077 303.6081 15.08849107 32597,6917.853,95.437,540.918,538.5169999999998,0.0
52305.0,STARLINK-3724,PAYLOAD,2022-11-21 09:51:00,15.08796667,0.000197,53.2191,105.3545,41.9933,318.121,0.00056478,8.701e-05,0.0,0 STARLINK-3724,1 52305U 22041AW  22325.41042324  .00008701  00000-0  56478-3 0  9997,2 52305  53.2191 105.3545 0001970  41.9933 318.1210 15.08796667 33925,6918.013000000001,95.44,541.241,538.515,0.0
52305.0,STARLINK-3724,PAYLOAD,2022-11-21 16:12:31,15.08839774,0.0002058,53.2189,104.1616,58.9117,301.2077,5.642600000000001e-05,6.1e-06,0.0,0 STARLINK-3724,1 52305U 22041AW  22325.67536485  .00000610  00000-0  56426-4 0  9996,2 52305  53.2189 104.1616 0002058  58.9117 301.2077 15.08839774 33963,6917.880999999999,95.438,541.17,538.322,0.0
52305.0,STARLINK-3724,PAYLOAD,2022-11-21 19:23:17,15.08842225,0.0002027,53.2186,103.5662,58.2019,301.9170000000001,7.6289e-05,9.26e-06,0.0,0 STARLINK-3724,1 52305U 22041AW  22325.80784265  .00000926  00000-0  76289-4 0  9991,2 52305  53.2186 103.5662 0002027  58.2019 301.9170 15.08842225 32767,6917.874,95.437,541.141,538.336,0.0
52305.0,STARLINK-3724,PAYLOAD,2022-11-22 12:52:32,15.08839905,0.0001882,53.2186,100.2947,52.599,307.5173,-1.1875e-05,-4.77e-06,0.0,0 STARLINK-3724,1 52305U 22041AW  22326.53648719 -.00000477  00000-0 -11875-4 0  9998,2 52305  53.2186 100.2947 0001882  52.5990 307.5173 15.08839905 32878,6917.880999999999,95.438,541.048,538.444,0.0
52305.0,STARLINK-3724,PAYLOAD,2022-11-22 16:03:18,15.08839669,0.0001796,53.219,99.7003,49.8165,310.2984,-1.2484e-05,-4.87e-06,0.0,0 STARLINK-3724,1 52305U 22041AW  22326.66896736 -.00000487  00000-0 -12484-4 0  9994,2 52305  53.2190  99.7003 0001796  49.8165 310.2984 15.08839669 32895,6917.880999999999,95.438,540.989,538.504,0.0
52305.0,STARLINK-3724,PAYLOAD,2022-11-22 20:49:28,15.08840636,0.0001888,53.2187,98.808,50.528,309.5879,-5.5320000000000006e-06,-3.76e-06,0.0,0 STARLINK-3724,1 52305U 22041AW  22326.86768634 -.00000376  00000-0 -55320-5 0  9995,2 52305  53.2187  98.8080 0001888  50.5280 309.5879 15.08840636 34145,6917.878000000002,95.438,541.05,538.437,0.0
52305.0,STARLINK-3724,PAYLOAD,2022-11-23 09:32:33,15.08833046,0.0001839,53.2197,96.4285,52.9838,307.1322,-1.1251e-05,-4.67e-06,0.0,0 STARLINK-3724,1 52305U 22041AW  22327.39761401 -.00000467  00000-0 -11251-4 0  9994,2 52305  53.2197  96.4285 0001839  52.9838 307.1322 15.08833046 34221,6917.901999999999,95.438,541.039,538.494,0.0
52305.0,STARLINK-3724,PAYLOAD,2022-11-23 15:54:06,15.08834321,0.0001858,53.2197,95.2392,52.0899,308.0261,-1.9632e-06,-3.19e-06,0.0,0 STARLINK-3724,1 52305U 22041AW  22327.66257383 -.00000319  00000-0 -19632-5 0  9991,2 52305  53.2197  95.2392 0001858  52.0899 308.0261 15.08834321 33044,6917.898,95.438,541.048,538.477,0.0
52305.0,STARLINK-3724,PAYLOAD,2022-11-24 09:23:20,15.08837199,0.0001896,53.2196,91.9687,48.4641,311.6513,4.6078e-05,4.45e-06,0.0,0 STARLINK-3724,1 52305U 22041AW  22328.39121311  .00000445  00000-0  46078-4 0  9994,2 52305  53.2196  91.9687 0001896  48.4641 311.6513 15.08837199 33157,6917.889,95.438,541.066,538.442,0.0
52305.0,STARLINK-3724,PAYLOAD,2022-11-24 14:09:29,15.08841164,0.0001892,53.2197,91.0768,48.8823,311.2332,7.5781e-05,9.18e-06,0.0,0 STARLINK-3724,1 52305U 22041AW  22328.58993000  .00000918  00000-0  75781-4 0  9995,2 52305  53.2197  91.0768 0001892  48.8823 311.2332 15.08841164 34402,6917.877,95.437,541.0509999999998,538.433,0.0
52305.0,STARLINK-3724,PAYLOAD,2022-11-25 09:14:08,15.08833244,0.0001831,53.2191,87.5083,55.2439,304.8725,3.6105e-05,2.86e-06,0.0,0 STARLINK-3724,1 52305U 22041AW  22329.38481779  .00000286  00000-0  36105-4 0  9994,2 52305  53.2191  87.5083 0001831  55.2439 304.8725 15.08833244 34521,6917.901,95.438,541.033,538.499,0.0
52305.0,STARLINK-3724,PAYLOAD,2022-11-25 12:24:54,15.08834142,0.0001949,53.2213,86.915,66.7762,293.3435,8.212e-05,1.019e-05,0.0,0 STARLINK-3724,1 52305U 22041AW  22329.51729687  .00001019  00000-0  82120-4 0  9995,2 52305  53.2213  86.9150 0001949  66.7762 293.3435 15.08834142 33325,6917.898,95.438,541.112,538.415,0.0
52305.0,STARLINK-3724,PAYLOAD,2022-11-25 15:35:40,15.08838837,0.0001852,53.2191,86.319,44.0456,316.0684,0.00012246,1.661e-05,0.0,0 STARLINK-3724,1 52305U 22041AW  22329.64977366  .00001661  00000-0  12246-3 0  9992,2 52305  53.2191  86.3190 0001852  44.0456 316.0684 15.08838837 34561,6917.884,95.438,541.03,538.4680000000002,0.0
52305.0,STARLINK-3724,PAYLOAD,2022-11-26 07:29:31,15.08848667,0.0001876,53.2191,83.3456,43.7026,316.4115,0.00011853,1.599e-05,0.0,0 STARLINK-3724,1 52305U 22041AW  22330.31216663  .00001599  00000-0  11853-3 0  9997,2 52305  53.2191  83.3456 0001876  43.7026 316.4115 15.08848667 34664,6917.854,95.437,541.0169999999998,538.4209999999998,0.0
52305.0,STARLINK-3724,PAYLOAD,2022-11-26 13:51:03,15.08850141,0.0001893,53.2192,82.1562,41.9222,318.1915,0.00011379,1.524e-05,0.0,0 STARLINK-3724,1 52305U 22041AW  22330.57712494  .00001524  00000-0  11379-3 0  9999,2 52305  53.2192  82.1562 0001893  41.9222 318.1915 15.08850141 33483,6917.849,95.437,541.024,538.405,0.0
52305.0,STARLINK-3724,PAYLOAD,2022-11-26 17:01:49,15.08848688,0.0001918,53.2194,81.5614,45.9318,314.1832,9.9871e-05,1.302e-05,0.0,0 STARLINK-3724,1 52305U 22041AW  22330.70960629  .00001302  00000-0  99871-4 0  9997,2 52305  53.2194  81.5614 0001918  45.9318 314.1832 15.08848688 33504,6917.854,95.437,541.0459999999998,538.3919999999998,0.0
52305.0,STARLINK-3724,PAYLOAD,2022-11-27 07:20:18,15.08844913,0.0001766,53.219,78.8847,45.6471,314.4666,4.42e-05,4.16e-06,0.0,0 STARLINK-3724,1 52305U 22041AW  22331.30576836  .00000416  00000-0  44200-4 0  9998,2 52305  53.2190  78.8847 0001766  45.6471 314.4666 15.08844913 34815,6917.865,95.437,540.952,538.509,0.0
52305.0,STARLINK-3724,PAYLOAD,2022-11-27 13:41:51,15.08835641,0.0001824,53.2195,77.6957,45.0745,315.0395,-5.2741e-05,-1.127e-05,0.0,0 STARLINK-3724,1 52305U 22041AW  22331.57073651 -.00001127  00000-0 -52741-4 0  9995,2 52305  53.2195  77.6957 0001824  45.0745 315.0395 15.08835641 34850,6917.894,95.438,541.021,538.497,0.0
